GLOBALSTAR M024         
1 25883U 99043A   25181.78016988 -.00000116  00000+0 -18332-2 0  9993
2 25883  52.0052 349.9523 0002148 114.0857 258.7352 11.10167891116373
GLOBALSTAR M027         
1 25884U 99043B   25181.89189004 -.00000101  00000+0 -14090-2 0  9997
2 25884  52.0228  68.0697 0021969  14.8169 345.3264 11.04371937142752
GLOBALSTAR M054         
1 25885U 99043C   25181.20484102 -.00000081  00000+0 -24184-3 0  9993
2 25885  52.0101 194.7175 0005845 200.5178 239.7821 11.39224580120536
GLOBALSTAR M053         
1 25886U 99043D   25181.66179774 -.00000072  00000+0 -10825-3 0  9997
2 25886  51.9960 141.4622 0002954  97.2510  73.4998 11.27665702120960
GLOBALSTAR M058         
1 25907U 99049A   25181.87973621 -.00000094  00000+0 -12730-3 0  9994
2 25907  51.9953  72.6118 0001855 312.5424  47.5254 11.93199900154382
GLOBALSTAR M050         
1 25908U 99049B   25181.87743398 -.00000069  00000+0  21186-3 0  9997
2 25908  51.9997  79.2708 0009807  58.0581  21.1367 12.07454529149845
GLOBALSTAR M033         
1 25909U 99049C   25181.78319021 -.00000075  00000+0  16398-3 0  9996
2 25909  51.9928 310.4230 0012877 290.7354  69.2113 12.20294086537404
GLOBALSTAR M055         
1 25910U 99049D   25181.67145769 -.00000078  00000+0  14292-3 0  9996
2 25910  52.0040 320.8291 0007601 155.6644 204.4568 12.29429163169947
